IRIDIUM 155             
1 43573U 18061E   21044.77868690  .00000089  00000-0  24724-4 0  9990
2 43573  86.4014 151.4223 0001675 106.4057 253.7323 14.34218612133944
IRIDIUM 154             
1 43574U 18061F   21044.75966563  .00000084  00000-0  23094-4 0  9991
2 43574  86.4018 151.4712 0002258  90.8385 269.3069 14.34219159133992
IRIDIUM 163             
1 43575U 18061G   21044.81040787  .00000084  00000-0  23073-4 0  9997
2 43575  86.4016 151.4246 0002645 103.1006 257.0486 14.34219255133973
IRIDIUM 156             
1 43576U 18061H   21044.78504002  .00000085  00000-0  23140-4 0  9995
2 43576  86.4015 151.4401 0002193 107.2461 252.8975 14.34218507133968
IRIDIUM 164             
1 43577U 18061J   21044.83578437  .00000086  00000-0  23578-4 0  9991
2 43577  86.4017 151.4297 0002343  94.2157 265.9306 14.34218372134018
IRIDIUM 159             
1 43578U 18061K   21044.80405843  .00000086  00000-0  23656-4 0  9996
2 43578  86.4015 151.4206 0002244  93.3434 266.8018 14.34216512133973
IRIDIUM 180             
1 43922U 19002A   21044.87332925  .00000081  00000-0  22030-4 0  9992
2 43922  86.3933  88.2403 0003162  82.6199 277.5356 14.34216927109594
IRIDIUM 176             
1 43923U 19002B   21045.52485641  .00000143  00000-0  18791-4 0  9998
2 43923  86.6067  87.9996 0002473  88.2917 271.8583 14.72252553112548
IRIDIUM 168             
1 43924U 19002C   21044.86699167  .00000044  00000-0  87134-5 0  9993
2 43924  86.3935  88.2651 0002370  87.4316 272.7151 14.34218634109572
IRIDIUM 173             
1 43925U 19002D   21044.92407293  .00000083  00000-0  22494-4 0  9998
2 43925  86.3931  88.2094 0002402  90.2297 269.9174 14.34218714109567
IRIDIUM 169             
1 43926U 19002E   21044.74308930  .00000099  00000-0  26006-4 0  9997
2 43926  86.4230 119.8957 0002787 280.7076  79.3808 14.38604014109953
IRIDIUM 172             
1 43927U 19002F   21045.40610133  .00000084  00000-0  23002-4 0  9990
2 43927  86.3932  88.0095 0002460  88.6879 271.4598 14.34216241109640
IRIDIUM 175             
1 43928U 19002G   21044.90695855  .00000148  00000-0  19618-4 0  9998
2 43928  86.6051  88.1023 0002892 103.7762 256.3777 14.72253762112441
IRIDIUM 171             
1 43929U 19002H   21044.82892251  .00000088  00000-0  24413-4 0  9991
2 43929  86.3941  88.3409 0002366  87.5622 272.5844 14.34219565109551
IRIDIUM 170             
1 43930U 19002J   21044.85138337  .00000163  00000-0  21860-4 0  9991
2 43930  86.6067  88.2880 0002674  93.9784 266.1739 14.72252466112453
IRIDIUM 167             
1 43931U 19002K   21045.52026633  .00000079  00000-0  21079-4 0  9990
2 43931  86.3933  87.9672 0002925  82.0490 278.1038 14.34219411109654
